BEIDOU-2 IGSO-1 (C06)   
1 36828U 10036A   25030.67515088 -.00000124  00000+0  00000+0 0  9993
2 36828  54.2692 167.5057 0044372 207.5004 105.2174  1.00264345 53054
BEIDOU-2 G4 (C04)       
1 37210U 10057A   25031.57198818 -.00000108  00000+0  00000+0 0  9992
2 37210   2.4009  70.4185 0008624 199.1284 227.3018  1.00269526 52268
BEIDOU-2 IGSO-2 (C07)   
1 37256U 10068A   25030.67327009 -.00000160  00000+0  00000+0 0  9998
2 37256  48.4575 278.0389 0038842 213.9207 348.7677  1.00279853 51759
BEIDOU-2 IGSO-3 (C08)   
1 37384U 11013A   25023.72627113 -.00000144  00000+0  00000+0 0  9990
2 37384  61.6727  44.9876 0029519 185.5207 258.4470  1.00254270 50554
BEIDOU-2 IGSO-4 (C09)   
1 37763U 11038A   25030.84487586 -.00000027  00000+0  00000+0 0  9997
2 37763  54.5741 170.1620 0133278 228.7251 130.3342  1.00259625 49618
BEIDOU-2 IGSO-5 (C10)   
1 37948U 11073A   25026.63139883 -.00000104  00000+0  00000+0 0  9993
2 37948  48.6014 277.7882 0100880 220.6175 311.0739  1.00281903 48052
BEIDOU-2 G5 (C05)       
1 38091U 12008A   25031.55200569  .00000063  00000+0  00000+0 0  9992
2 38091   2.3220  71.2252 0013533 240.4687  76.7594  1.00268702 47338
BEIDOU-2 M3 (C11)       
1 38250U 12018A   25028.98918987 -.00000060  00000+0  00000+0 0  9991
2 38250  56.1754 321.8108 0023631 272.5761  87.1751  1.86233592 86558
BEIDOU-2 M4 (C12)       
1 38251U 12018B   25031.06801481 -.00000058  00000+0  00000+0 0  9992
2 38251  56.0782 320.9957 0014581 278.2281  81.6356  1.86232003 86595
BEIDOU-2 M6 (C14)       
1 38775U 12050B   25031.31486560  .00000003  00000+0  00000+0 0  9993
2 38775  56.1016  79.5480 0012903 334.0440  25.9742  1.86230909 83960
BEIDOU-2 G6 (C02)       
1 38953U 12059A   25031.55695787 -.00000170  00000+0  00000+0 0  9995
2 38953   3.1424  78.6423 0009278 292.3541  44.4875  1.00273796 44876
BEIDOU-3S IGSO-1S (C31) 
1 40549U 15019A   25029.77563645 -.00000141  00000+0  00000+0 0  9994
2 40549  50.1473 301.5054 0033731 196.9435   3.3340  1.00253770 36025
BEIDOU-3S M2S (C58)     
1 40748U 15037A   25029.12166384 -.00000057  00000+0  00000+0 0  9999
2 40748  55.3049 319.3396 0010950 270.1643  89.7363  1.86228656 64733
BEIDOU-3S M1S (C57)     
1 40749U 15037B   25031.00453314 -.00000057  00000+0  00000+0 0  9992
2 40749  55.3000 319.2688 0004404 358.8467   1.1838  1.86253593 64776
BEIDOU-3S IGSO-2S (C56) 
1 40938U 15053A   25029.60952473 -.00000058  00000+0  00000+0 0  9994
2 40938  50.0012 264.7509 0051708 187.2562 350.0588  1.00254394 34306
BEIDOU-2 IGSO-6 (C13)   
1 41434U 16021A   25031.48806168 -.00000130  00000+0  00000+0 0  9991
2 41434  59.5141  43.0470 0054819 229.0638 131.2218  1.00270008 32458
BEIDOU-2 G7 (C03)       
1 41586U 16037A   25031.56225758 -.00000348  00000+0  00000+0 0  9996
2 41586   1.9267  68.0876 0008624 343.6094  32.2358  1.00267612  1868
BEIDOU-3 M1 (C19)       
1 43001U 17069A   25031.08065902  .00000005  00000+0  00000+0 0  9995
2 43001  56.2504  79.6820 0011311 298.8541  61.1158  1.86231075 49253
BEIDOU-3 M2 (C20)       
1 43002U 17069B   25029.94444522  .00000006  00000+0  00000+0 0  9998
2 43002  56.2490  79.7556 0008487 319.2652  40.7556  1.86230824 49229
BEIDOU-3 M7 (C27)       
1 43107U 18003A   25030.22836081 -.00000057  00000+0  00000+0 0  9998
2 43107  54.7626 319.7929 0003752  55.5177 304.5464  1.86232296 47998
BEIDOU-3 M8 (C28)       
1 43108U 18003B   25030.17066809 -.00000057  00000+0  00000+0 0  9996
2 43108  54.7555 319.7793 0004203 281.6617  78.3199  1.86230764 47991
BEIDOU-3 M4 (C22)       
1 43207U 18018A   25031.14880444  .00000004  00000+0  00000+0 0  9990
2 43207  56.2093  79.7610 0005373 341.6700  18.3939  1.86230985 47390
BEIDOU-3 M3 (C21)       
1 43208U 18018B   25030.14144812  .00000006  00000+0  00000+0 0  9994
2 43208  56.2079  79.7988 0008691 307.9395  52.0662  1.86231181 47379
BEIDOU-3 M9 (C29)       
1 43245U 18029A   25030.36061559 -.00000054  00000+0  00000+0 0  9991
2 43245  54.6389 317.4743 0001563 310.9372  49.0823  1.86232374 46534
BEIDOU-3 M10 (C30)      
1 43246U 18029B   25029.21669973 -.00000055  00000+0  00000+0 0  9999
2 43246  54.6371 317.5410 0004899   2.3710 357.6605  1.86228812 46494
BEIDOU-2 IGSO-7 (C16)   
1 43539U 18057A   25019.31863137 -.00000081  00000+0  00000+0 0  9992
2 43539  55.1601 167.5020 0079956 232.2573 302.6513  1.00246108 23989
BEIDOU-3 M5 (C23)       
1 43581U 18062A   25030.51636025  .00000076  00000+0  00000+0 0  9997
2 43581  54.1124 199.3950 0001401 346.3396  13.6276  1.86228500 44270
BEIDOU-3 M6 (C24)       
1 43582U 18062B   25030.91795953  .00000076  00000+0  00000+0 0  9998
2 43582  54.1117 199.3706 0007027  46.0324 313.9949  1.86229360 44286
BEIDOU-3 M12 (C26)      
1 43602U 18067A   25030.85250702  .00000075  00000+0  00000+0 0  9996
2 43602  54.2038 198.0751 0008486  37.3067 322.7199  1.86227696 43762
BEIDOU-3 M11 (C25)      
1 43603U 18067B   25030.98616814  .00000075  00000+0  00000+0 0  9991
2 43603  54.2011 198.0353 0005043  34.0231 325.9765  1.86227176 43795
BEIDOU-3 M13 (C32)      
1 43622U 18072A   25028.79865524  .00000003  00000+0  00000+0 0  9999
2 43622  56.1796  79.3638 0007891 294.9253  65.0748  1.86231037 43264
BEIDOU-3 M14 (C33)      
1 43623U 18072B   25029.73804078  .00000006  00000+0  00000+0 0  9995
2 43623  56.1822  79.3257 0005256 316.0307  44.0115  1.86231022 43271
BEIDOU-3 M16 (C35)      
1 43647U 18078A   25030.97298827 -.00000055  00000+0  00000+0 0  9999
2 43647  54.5346 317.5322 0007956  15.2955 344.7627  1.86232188 42806
BEIDOU-3 M15 (C34)      
1 43648U 18078B   25029.49133051 -.00000054  00000+0  00000+0 0  9991
2 43648  54.5316 317.5858 0004799  17.7771 342.2697  1.86232009 42793
BEIDOU-3 G1 (C59)       
1 43683U 18085A   25031.53586381 -.00000273  00000+0  00000+0 0  9997
2 43683   2.7601 101.8745 0001355  12.7753 349.2993  1.00273677 23037
BEIDOU-3 M17 (C36)      
1 43706U 18093A   25030.71863788  .00000076  00000+0  00000+0 0  9990
2 43706  54.1954 199.3432 0006075 297.1747  62.7334  1.86228166 42186
BEIDOU-3 M18 (C37)      
1 43707U 18093B   25030.58212259  .00000076  00000+0  00000+0 0  9997
2 43707  54.1962 199.3397 0005769 342.8850  17.0661  1.86229665 42178
BEIDOU-3 IGSO-1 (C38)   
1 44204U 19023A   25031.42116373 -.00000185  00000+0  00000+0 0  9990
2 44204  57.9785  42.8373 0023291 225.7776 132.9438  1.00285765  2171
BEIDOU-2 G8 (C01)       
1 44231U 19027A   25031.56894737 -.00000244  00000+0  00000+0 0  9992
2 44231   2.0458  74.9062 0004562 217.0589 188.3238  1.00267512 21057
BEIDOU-3 IGSO-2 (C39)   
1 44337U 19035A   25030.76433603 -.00000140  00000+0  00000+0 0  9995
2 44337  55.2008 163.2727 0036108 198.6282 161.5810  1.00268313 20632
BEIDOU-3 M24 (C46)      
1 44542U 19061A   25031.18938846  .00000077  00000+0  00000+0 0  9996
2 44542  54.4228 199.6588 0008716  19.5867 340.4159  1.86229017 36449
BEIDOU-3 M23 (C45)      
1 44543U 19061B   25030.78462828  .00000077  00000+0  00000+0 0  9994
2 44543  54.4216 199.6411 0005361  19.2135 342.0658  1.86229186 36449
BEIDOU-3 IGSO-3 (C40)   
1 44709U 19073A   25031.10122714 -.00000153  00000+0  00000+0 0  9991
2 44709  55.6590 286.3036 0041145 183.0810 177.0083  1.00287500 19425
BEIDOU-3 M22 (C44)      
1 44793U 19078A   25028.34849969 -.00000057  00000+0  00000+0 0  9992
2 44793  54.3842 317.5279 0006741  19.5254 340.5265  1.86231922 35257
BEIDOU-3 M21 (C43)      
1 44794U 19078B   25031.16358251 -.00000056  00000+0  00000+0 0  9995
2 44794  54.3551 317.4008 0005024  12.7183 347.3291  1.86227587 35305
BEIDOU-3 M19 (C41)      
1 44864U 19090A   25029.54215892  .00000005  00000+0  00000+0 0  9992
2 44864  56.1141  79.4981 0019406 282.1532 263.2690  1.86231416 34857
BEIDOU-3 M20 (C42)      
1 44865U 19090B   25029.11854940  .00000004  00000+0  00000+0 0  9998
2 44865  56.1152  79.5459 0016787 293.6841  57.4182  1.86231416 34826
BEIDOU-3 G2 (C60)       
1 45344U 20017A   25031.55617595 -.00000135  00000+0  00000+0 0  9992
2 45344   2.6415  37.1862 0003012 275.3134  98.7652  1.00270524 18230
BEIDOU-3 G3 (C61)       
1 45807U 20040A   25031.56225758 -.00000347  00000+0  00000+0 0  9994
2 45807   1.2423  59.8981 0004033 311.2516  72.6616  1.00263962 17046
BEIDOU-3 G4 (C62)       
1 56564U 23066A   25031.57207507 -.00000105  00000+0  00000+0 0  9992
2 56564   1.5564 289.6776 0002261 255.3880 311.9105  1.00272035  6361
BEIDOU-3 M28 (C50)      
1 58654U 23207A   25028.56090158 -.00000001  00000+0  00000+0 0  9993
2 58654  55.3001  79.3895 0004100 277.4794  82.5544  1.86231964  7443
BEIDOU-3 M26 (C48)      
1 58655U 23207B   25031.04517222  .00000002  00000+0  00000+0 0  9997
2 58655  55.3044  79.2908 0005182 265.0664  94.9569  1.86231347  7477
